{
"type": "FeatureCollection",
"name": "cankaya_boundary",
"crs": { "type": "name", "properties": { "name": "urn:ogc:def:crs:EPSG::32636" } },
"features": [
{ "type": "Feature", "properties": { "bbox_west": 32.6265211, "bbox_south": 39.6582726, "bbox_east": 33.14353, "bbox_north": 39.9374826, "place_id": 206962206, "osm_type": "relation", "osm_id": 1812321, "lat": 39.8853321, "lon": 32.8554966, "class": "boundary", "type": "administrative", "place_rank": 12, "importance": 0.46562980374353397, "addresstype": "town", "name": "Çankaya", "display_name": "Çankaya, Ankara, Central Anatolia Region, Turkey" }, "geometry": { "type": "Polygon", "coordinates": [ [ [ 468051.304203592648264, 4411424.340172710828483 ], [ 468067.811032970261294, 4411380.49688617233187 ], [ 468095.315436971490271, 4411315.220039090141654 ], [ 468119.087455373664852, 4411265.641703664325178 ], [ 468136.050911401514895, 4411234.715880391187966 ], [ 468158.833986095327418, 4411196.107580934651196 ], [ 468204.552937915665098, 4411126.670940294861794 ], [ 468248.035513147711754, 4411070.607025849632919 ], [ 468275.660174142802134, 4411037.805955839343369 ], [ 468303.646766827383544, 4411007.645043276250362 ], [ 468331.520383228664286, 4410979.071856117807329 ], [ 468372.892197224486154, 4410939.699159394018352 ], [ 468405.934928403003141, 4410911.448949744924903 ], [ 468444.353894949250389, 4410879.869217562489212 ], [ 468482.444147431233432, 4410851.487537329085171 ], [ 468529.105195440468378, 4410816.433610497042537 ], [ 468579.109764921711758, 4410782.975589485839009 ], [ 468617.673719471145887, 4410757.212004357948899 ], [ 468672.940627012343612, 4410721.679715895093977 ], [ 468778.923567380523309, 4410656.672757782042027 ], [ 468943.725980932242237, 4410553.49209538474679 ], [ 469019.817976113932673, 4410502.672292771749198 ], [ 469059.403166200441774, 4410474.853534406982362 ], [ 469119.120751440350432, 4410430.271988857537508 ], [ 469164.519011821132153, 4410392.596662750467658 ], [ 469200.111929977254476, 4410358.934498673304915 ], [ 469245.948577524279244, 4410317.306681276299059 ], [ 469291.959964752371889, 4410270.062382793053985 ], [ 469345.267781894479413, 4410209.437115264125168 ], [ 469398.030740007176064, 4410140.723290097899735 ], [ 469447.260680775798392, 4410067.639873804524541 ], [ 469464.462095723953098, 4410038.580803485587239 ], [ 469489.523238592490088, 4409995.783253779634833 ], [ 469525.273113700677641, 4409934.108335592783988 ], [ 469545.53305509488564, 4409892.994944063946605 ], [ 469568.169232115615159, 4409842.615656935609877 ], [ 469587.723809063900262, 4409796.133313313126564 ], [ 469607.923190612578765, 4409739.592840204946697 ], [ 469626.622756954806391, 4409680.205957993865013 ], [ 469638.724391533643939, 4409631.311585044488311 ], [ 469659.164689465775155, 4409553.316103043034673 ], [ 469668.840477457328234, 4409505.385915928520262 ], [ 469676.011623526341282, 4409460.20710189267993 ], [ 469683.13855788501678, 4409406.005054863169789 ], [ 469689.83758937305538, 4409345.278552616946399 ], [ 469694.4741602584254, 4409284.46033903863281 ], [ 469697.605396504979581, 4409234.602721359580755 ], [ 469703.567901907255873, 4409145.543644762597978 ], [ 469708.724795742542483, 4409056.132609557360411 ], [ 469712.195801604597364, 4408949.358471254818141 ], [ 469715.576424591010436, 4408873.783736021257937 ], [ 469716.675145280198194, 4408803.25694183818996 ], [ 469719.632253855583258, 4408681.157298993319273 ], [ 469720.538874845369719, 4408562.040296914987266 ], [ 469719.376606388483196, 4408443.442049502395093 ], [ 469716.613798480946571, 4408294.505771312862635 ], [ 469711.772375608154107, 4408145.844123711809516 ], [ 469707.157202799979132, 4408052.243219021707773 ], [ 469701.563267705787439, 4407942.741492388769984 ], [ 469695.697013313299976, 4407853.130073526874185 ], [ 469683.913636673882138, 4407717.359624686650932 ], [ 469675.766034015861806, 4407630.964858815073967 ], [ 469664.301327609166037, 4407495.859151723794639 ], [ 469648.309724666120019, 4407365.377461744472384 ], [ 469641.075143592664972, 4407306.526574723422527 ], [ 469629.592410909302998, 4407218.935347821563482 ], [ 469617.303503036440816, 4407131.003280404955149 ], [ 469604.332977291080169, 4407043.928560525178909 ], [ 469580.195985698024742, 4406891.037490752525628 ], [ 469553.662483346357476, 4406742.739883447065949 ], [ 469543.575051010760944, 4406687.896066332235932 ], [ 469535.342874291935004, 4406638.982782697305083 ], [ 469529.771060538070742, 4406593.954631225205958 ], [ 469524.033426445850637, 4406537.384322617202997 ], [ 469519.870351192774251, 4406472.106245212256908 ], [ 469520.836329684942029, 4406426.597046729177237 ], [ 469522.571463165455498, 4406372.161303584463894 ], [ 469524.969732928730082, 4406340.242524705827236 ], [ 469527.96340225066524, 4406313.815318066626787 ], [ 469531.85112839017529, 4406279.726341933943331 ], [ 469542.056725362315774, 4406219.885085120797157 ], [ 469553.091234014020301, 4406166.100533286109567 ], [ 469565.185727699368726, 4406118.360671599395573 ], [ 469578.646825549716596, 4406067.652012050151825 ], [ 469593.854603091778699, 4406023.451479818671942 ], [ 469610.904904848604929, 4405979.70982626080513 ], [ 469627.615686971577816, 4405938.810868711210787 ], [ 469639.91337248327909, 4405911.891798141412437 ], [ 469652.099430357047822, 4405887.026479674503207 ], [ 469676.137141164741479, 4405841.42600333224982 ], [ 469697.916089206119068, 4405802.57154487259686 ], [ 469718.221088515012525, 4405769.782951244153082 ], [ 469744.475920401222538, 4405730.455893129110336 ], [ 469769.482989561744034, 4405695.939654910936952 ], [ 469793.694582689611707, 4405663.713001136668026 ], [ 469813.689893100294285, 4405639.039154412224889 ], [ 469834.712679248128552, 4405614.372416000813246 ], [ 469864.330308913136832, 4405583.034820473752916 ], [ 469888.459237944451161, 4405557.900967011228204 ], [ 469923.340529864188284, 4405523.912498181685805 ], [ 469983.185049066320062, 4405472.101514341309667 ], [ 470018.328306652838364, 4405445.78176433686167 ], [ 470053.934059842838906, 4405419.44927267357707 ], [ 470090.571851294022053, 4405394.256102347746491 ], [ 470129.85708859184524, 4405369.518941954709589 ], [ 470228.594145859882701, 4405307.835834317840636 ], [ 470317.932541481044609, 4405252.827519852668047 ], [ 470357.908704336150549, 4405227.056680137291551 ], [ 470415.96148643665947, 4405186.576889359392226 ], [ 470470.805220160109457, 4405146.331887296400964 ], [ 470510.302111917058937, 4405115.879997068084776 ], [ 470533.422423763899133, 4405096.923056917265058 ], [ 470564.665216982248239, 4405070.609760412015021 ], [ 470591.906514830130618, 4405047.863572604954243 ], [ 470631.612717264040839, 4405011.451448262669146 ], [ 470659.300750734750181, 4404986.761499512940645 ], [ 470692.13609254010953, 4404955.75893465988338 ], [ 470720.609174520708621, 4404925.794269783422351 ], [ 470753.325000406010076, 4404892.506073750555515 ], [ 470792.655186312040314, 4404849.126181805506349 ], [ 470815.525617724924814, 4404822.61276952829212 ], [ 470836.788085166423116, 4404798.747065276838839 ], [ 470861.015247229894157, 4404768.688108110800385 ], [ 470888.555362307175528, 4404733.932945674285293 ], [ 470916.54678321047686, 4404696.20169083122164 ], [ 470956.065417010860983, 4404641.035010722465813 ], [ 470984.149744886090048, 4404598.2648003725335 ], [ 471021.823713912279345, 4404539.564938307739794 ], [ 471047.846200637111906, 4404497.035844815894961 ], [ 471071.467396250809543, 4404457.945439620874822 ], [ 471126.088026895187795, 4404356.174294893629849 ], [ 471157.41130800038809, 4404288.464635926298797 ], [ 471184.170220841304399, 4404229.573625775054097 ], [ 471207.597436261188705, 4404168.064813880249858 ], [ 471347.461520196695346, 4404212.357759953476489 ], [ 471359.214644493535161, 4404216.076335124671459 ], [ 471381.222328226547688, 4404278.535903408192098 ], [ 471723.91714907984715, 4405250.884940664283931 ], [ 471619.941920889017638, 4405385.664882413111627 ], [ 471869.434201634896453, 4405609.906709077768028 ], [ 472119.537894653563853, 4406504.856518108397722 ], [ 472333.051525735238101, 4406474.75929637439549 ], [ 472368.209548334707506, 4406601.125771470367908 ], [ 472457.250934792740736, 4406968.23199060279876 ], [ 472467.137385263689794, 4407018.318794314749539 ], [ 472483.056208838941529, 4407177.485528228804469 ], [ 472484.591907256748527, 4407204.694367503747344 ], [ 472491.273590073978994, 4407315.847460691817105 ], [ 472479.569143246277235, 4407571.895466205663979 ], [ 472472.507636376016308, 4407726.505608472041786 ], [ 472469.515004133572802, 4407736.827198727987707 ], [ 472522.877812813327182, 4407739.232662655413151 ], [ 472640.851117750571575, 4407744.559452667832375 ], [ 472614.059846456220839, 4407853.812404545024037 ], [ 472684.214140765427146, 4407858.811574166640639 ], [ 472672.750172533385921, 4407982.327192389406264 ], [ 472779.483296021586284, 4407983.04579287674278 ], [ 472781.861643292533699, 4408011.694570402614772 ], [ 472787.864359855768271, 4408039.131791904568672 ], [ 472804.963299901632126, 4408065.519603598862886 ], [ 472780.190521967539098, 4408112.167317195795476 ], [ 472880.941856460238341, 4408176.327424545772374 ], [ 472873.256306883064099, 4408193.12501725088805 ], [ 472863.899082761898171, 4408209.10722796805203 ], [ 472854.939377828442957, 4408221.336628928780556 ], [ 472845.14958433015272, 4408233.568984934128821 ], [ 472981.625247211835813, 4408238.691075214184821 ], [ 472996.249521837511566, 4408243.156713807955384 ], [ 473024.507864152663387, 4408260.104934439063072 ], [ 473038.602692466345616, 4408260.055286197923124 ], [ 473246.678755534871016, 4408004.540233209729195 ], [ 473391.544599558808841, 4408142.460220687091351 ], [ 473820.09757399460068, 4408582.06203294172883 ], [ 474170.409876766847447, 4408373.434692937880754 ], [ 474198.073327533435076, 4408346.837382462807 ], [ 474235.069106032839045, 4408311.263098949566483 ], [ 474479.937492217053659, 4408183.150427125394344 ], [ 474497.967556723044254, 4408177.485440155491233 ], [ 474659.466862754663453, 4408128.414031391963363 ], [ 474692.6944293405395, 4408124.741406541317701 ], [ 474779.708448943623807, 4408123.25561691634357 ], [ 474902.18906626990065, 4408119.689983358606696 ], [ 474919.070911914866883, 4408121.288389025256038 ], [ 474932.903422603791114, 4408124.694824616424739 ], [ 474947.53831687476486, 4408130.085349637083709 ], [ 474962.204961848037783, 4408137.340401587076485 ], [ 475041.182888884970453, 4408185.761991575360298 ], [ 475149.217089785379358, 4408248.263226659037173 ], [ 475103.942060904868413, 4408318.288535302504897 ], [ 475313.935199998610187, 4408355.311266981065273 ], [ 475416.122282126685604, 4408445.238107865676284 ], [ 475515.016612185339909, 4408456.253080406226218 ], [ 475539.393674609658774, 4408527.340829446911812 ], [ 475562.077496737649199, 4408853.585072649642825 ], [ 475263.96783501066966, 4409115.953534677624702 ], [ 475326.956358426308725, 4409134.673752720467746 ], [ 475353.816475997678936, 4409139.914658326655626 ], [ 475482.777162526443135, 4409182.208818148821592 ], [ 475611.466204633703455, 4409233.695846171118319 ], [ 475899.583448222954758, 4409350.264374605379999 ], [ 476859.411523450631648, 4409362.618501870892942 ], [ 477021.347881413588766, 4409251.708390518091619 ], [ 477201.876739717205055, 4409012.233138330280781 ], [ 477231.327680147776846, 4408867.527907323092222 ], [ 477274.366224031662568, 4408871.795141469687223 ], [ 477308.214324294414837, 4408870.318473131395876 ], [ 477356.832975283323321, 4408860.40754505712539 ], [ 477455.000962583697401, 4408825.234220932237804 ], [ 477558.774917531060055, 4408787.14893810171634 ], [ 477594.283621212816797, 4408776.922808195464313 ], [ 477632.839466620003805, 4408769.840001333504915 ], [ 477682.432076072553173, 4408764.900570530444384 ], [ 477744.032977937720716, 4408766.619120015762746 ], [ 477817.650749411666766, 4408778.014789146371186 ], [ 477867.128931410377845, 4408789.713997698388994 ], [ 477979.909721532836556, 4408811.819426284171641 ], [ 478110.791150373523124, 4408843.830359509214759 ], [ 478298.847961156396195, 4408941.208557589910924 ], [ 478407.732910866907332, 4408997.104978431016207 ], [ 478524.236080074391793, 4409057.498777027241886 ], [ 478631.886266235960647, 4409113.668209916912019 ], [ 478874.974965667002834, 4409238.587488945573568 ], [ 479088.3518272920046, 4409346.525622959248722 ], [ 479373.271686329389922, 4409485.830427820794284 ], [ 479621.156050333986059, 4409608.47404254693538 ], [ 479642.419781856471673, 4409618.52845873683691 ], [ 479658.882656610221602, 4409625.110668630339205 ], [ 479677.163930252892897, 4409630.156449778936803 ], [ 479695.09850997797912, 4409633.538373847492039 ], [ 479710.589759040507488, 4409635.128811210393906 ], [ 479727.055509090423584, 4409636.372635397128761 ], [ 479743.302292885025963, 4409635.708080469630659 ], [ 479761.787809171655681, 4409633.894462602213025 ], [ 479777.618149504705798, 4409631.055716602131724 ], [ 479798.936354022822343, 4409626.193631996400654 ], [ 479867.667259467008989, 4409605.735002201981843 ], [ 479890.808278546261135, 4409597.683023625053465 ], [ 479903.832966725109145, 4409455.007038850337267 ], [ 479931.064284277439583, 4409149.907388562336564 ], [ 479963.876828302280046, 4409158.489580506458879 ], [ 480324.428736274654511, 4409357.598848551511765 ], [ 480400.544328885618597, 4409449.368146362714469 ], [ 480547.314558109792415, 4409627.539981834590435 ], [ 480740.202994639636017, 4409879.993667401373386 ], [ 480748.172069054795429, 4409905.134589731693268 ], [ 480922.989922375651076, 4409819.53570366743952 ], [ 480945.826710819499567, 4409761.287825887091458 ], [ 480956.819132034142967, 4409753.480208777822554 ], [ 480995.694471400231123, 4409741.474561177194118 ], [ 481097.83357038354734, 4409625.028342202305794 ], [ 481187.788054411299527, 4409517.692276125773787 ], [ 481208.065057072613854, 4409502.99206003639847 ], [ 481267.956318020122126, 4409431.335753560066223 ], [ 481276.101401821419131, 4409403.036117049865425 ], [ 481308.23891228082357, 4409353.523574534803629 ], [ 481324.64551815809682, 4409340.919699795544147 ], [ 481360.816134219116066, 4409334.516317561268806 ], [ 481435.365541775652673, 4409367.720263886265457 ], [ 481500.008766567334533, 4409380.937767717055976 ], [ 481588.421223098121118, 4409379.581391363404691 ], [ 481685.382719471119344, 4409400.070173227228224 ], [ 481722.305419572629035, 4409389.704434351995587 ], [ 481778.174221914785448, 4409362.046238037757576 ], [ 481829.235356207878795, 4409305.887102589942515 ], [ 481837.405679329356644, 4409269.263938407413661 ], [ 481854.840969847107772, 4409246.181520933285356 ], [ 481883.420553061936516, 4409224.46010500472039 ], [ 481894.703084008768201, 4409219.194784878753126 ], [ 481908.175639230990782, 4409213.702328973449767 ], [ 481920.999445315217599, 4409208.866257112473249 ], [ 481930.082748219894711, 4409203.528493185527623 ], [ 481937.334072759666014, 4409197.839902468957007 ], [ 481943.553905783046503, 4409190.167071216739714 ], [ 481948.419836071669124, 4409178.046829217113554 ], [ 481955.226165409665555, 4409172.326009091921151 ], [ 481963.609628285455983, 4409167.733553542755544 ], [ 481973.725562919513322, 4409161.194741188548505 ], [ 481987.938265020726249, 4409157.443191608414054 ], [ 482012.675455836288165, 4409138.916656809858978 ], [ 482021.834359203174245, 4409129.272501172497869 ], [ 482029.123196070140693, 4409117.634967966005206 ], [ 482031.896428419800941, 4409110.680624870583415 ], [ 482038.256218846596312, 4409093.296117290854454 ], [ 482042.072414255235344, 4409064.030797154642642 ], [ 482048.951963993662503, 4409038.376495268195868 ], [ 482054.840707322349772, 4409028.074125245213509 ], [ 482059.372080413100775, 4409022.78048749640584 ], [ 482065.419945486530196, 4409018.293509446084499 ], [ 482129.844319790776353, 4408991.971927433274686 ], [ 482140.155135497392621, 4408984.445093402639031 ], [ 482144.209418980928604, 4408980.018324012868106 ], [ 482168.997322225361131, 4408935.09931224770844 ], [ 482173.80777567072073, 4408928.328957340680063 ], [ 482180.287750124465674, 4408921.932076909579337 ], [ 482186.75836970936507, 4408918.864854572340846 ], [ 482198.376253382768482, 4408917.694653657265007 ], [ 482207.968557897023857, 4408917.583561377599835 ], [ 482213.776895759627223, 4408916.737655160017312 ], [ 482220.912203174317256, 4408912.47025035135448 ], [ 482233.328631141688675, 4408901.409245151095092 ], [ 482245.409184344287496, 4408878.340172557160258 ], [ 482248.467300767486449, 4408872.339745385572314 ], [ 482254.54633064486552, 4408866.432204589247704 ], [ 482264.447857276070863, 4408863.101824035868049 ], [ 482278.391483941872139, 4408861.105048136785626 ], [ 482319.945111788169015, 4408849.910191833041608 ], [ 482328.201915559009649, 4408845.806779432110488 ], [ 482338.125458811467979, 4408840.867122649215162 ], [ 482353.961355745675974, 4408831.907192533835769 ], [ 482361.651621484663337, 4408823.310122322291136 ], [ 482364.028845012187958, 4408815.147052086889744 ], [ 482362.211806045495905, 4408806.460905005224049 ], [ 482358.310648451675661, 4408795.737388458102942 ], [ 482356.908823012548964, 4408788.992569878697395 ], [ 482357.250024290930014, 4408736.539020193740726 ], [ 482550.214423842728138, 4408693.577360025607049 ], [ 482528.201322672481183, 4408542.073987922631204 ], [ 482551.56804496148834, 4408318.791381769813597 ], [ 482567.69981923874002, 4408146.024723573587835 ], [ 482586.515468249912374, 4407922.508565163239837 ], [ 482599.226649159914814, 4407776.586635741405189 ], [ 482607.10611212317599, 4407707.512341001071036 ], [ 482614.329875165014528, 4407654.91008672863245 ], [ 482625.23080293595558, 4407600.923255987465382 ], [ 482644.364530824648682, 4407535.253005802631378 ], [ 482674.479010783019476, 4407454.241700323298573 ], [ 482688.871947878214996, 4407422.655435566790402 ], [ 482704.871478445769753, 4407389.922401575371623 ], [ 482775.760266461526044, 4407266.289190613664687 ], [ 483039.680766001227312, 4406815.913055925630033 ], [ 483071.905527161317877, 4406749.293815313838422 ], [ 483081.837779622524977, 4406754.599259393289685 ], [ 483199.018388317315839, 4406817.160118761472404 ], [ 483532.477468812372535, 4407011.607014394365251 ], [ 483588.255566232721321, 4407038.335109176114202 ], [ 483651.22714289103169, 4407067.00162660703063 ], [ 483720.150590002012905, 4407093.391867082566023 ], [ 483793.317265862016939, 4407114.967998300679028 ], [ 483850.024858051852789, 4407128.677223647013307 ], [ 483910.717465652618557, 4407140.802476674318314 ], [ 483977.789951409853529, 4407150.528634849004447 ], [ 484029.547996653302107, 4407155.170786663889885 ], [ 484083.101928487361874, 4407154.992709316313267 ], [ 484136.421486195991747, 4407149.099649357609451 ], [ 484371.761481057561468, 4407131.723558052442968 ], [ 484640.237676212622318, 4407341.900750439614058 ], [ 484611.310929568484426, 4407568.783468101173639 ], [ 484545.93407922773622, 4407934.751489114016294 ], [ 484678.574165013385937, 4408146.659443716518581 ], [ 484891.922285093110986, 4408314.514525921083987 ], [ 485400.3904576607747, 4408214.760387458838522 ], [ 485610.745166091481224, 4408265.571703714318573 ], [ 485661.529172945010941, 4408417.284901337698102 ], [ 485597.52273032994708, 4408556.405619953759015 ], [ 485243.693569151451811, 4408848.798816848546267 ], [ 485314.586982288339641, 4408954.289240443147719 ], [ 485500.44906457408797, 4408838.0418268321082 ], [ 485561.055468727136031, 4408858.437743089161813 ], [ 485838.021218370529823, 4408615.379572003148496 ], [ 485954.276522886415478, 4408588.628308997489512 ], [ 486151.357836871466134, 4408377.093663027510047 ], [ 486226.199507849116344, 4408227.325583424419165 ], [ 486234.5576420884463, 4407911.529629372060299 ], [ 486359.538218461209908, 4407794.003588231280446 ], [ 486596.892999183910433, 4407816.703079646453261 ], [ 486998.003315907088108, 4407139.977961825206876 ], [ 487159.305329806928057, 4406949.451886104419827 ], [ 487217.84992783004418, 4406810.320567009970546 ], [ 487408.585756729356945, 4406641.704045462422073 ], [ 487706.524083018070087, 4406429.945443463511765 ], [ 487912.29023974383017, 4406573.279416171833873 ], [ 487781.76393950835336, 4406804.627851265482605 ], [ 487825.980631398735568, 4406841.371814975515008 ], [ 487821.774426729709376, 4406882.221697418950498 ], [ 487708.247398763254751, 4406981.092649550177157 ], [ 487744.522972020844463, 4407014.053144275210798 ], [ 487549.746030216047075, 4407207.018525833263993 ], [ 487536.18507442844566, 4407688.691141624934971 ], [ 487618.38181201525731, 4407726.415495976805687 ], [ 487818.593033075216226, 4407744.873400839045644 ], [ 487851.95949721056968, 4407770.081057806499302 ], [ 487941.992029093729798, 4407872.25776634644717 ], [ 487981.567537250230089, 4407884.47072168905288 ], [ 487965.578377903788351, 4407899.323713479563594 ], [ 488058.144190441584215, 4408019.954975415952504 ], [ 487981.02665680256905, 4408025.136654064059258 ], [ 487982.448732432036195, 4408058.76352561917156 ], [ 488063.27432504465105, 4408049.858008838258684 ], [ 488214.646873507415876, 4407970.289919979870319 ], [ 488304.696540786710102, 4407864.281249453313649 ], [ 488372.134105423523579, 4407823.723751035518944 ], [ 488565.494265132292639, 4407572.834904739633203 ], [ 488827.698233343369793, 4407375.146290244534612 ], [ 489109.094423523347359, 4407067.628985137678683 ], [ 489484.636293804564048, 4406780.80245556961745 ], [ 489555.070110302825924, 4406685.046535803936422 ], [ 489775.50082165224012, 4406598.368102862499654 ], [ 489807.189824044529814, 4406605.584407934919 ], [ 489833.307498555339407, 4406652.308439382351935 ], [ 489995.674672309309244, 4406691.350692957639694 ], [ 490154.383769934473094, 4406649.325230551883578 ], [ 490201.291426094830967, 4406616.568375902250409 ], [ 490211.410734783334192, 4406483.992838812991977 ], [ 490295.50992373196641, 4406483.231016298756003 ], [ 490354.506434038979933, 4406396.664534360170364 ], [ 490367.78919562586816, 4406401.708816941827536 ], [ 490395.976877113629598, 4406353.849243561737239 ], [ 490431.477376579598058, 4406218.667395380325615 ], [ 490443.436124735570047, 4406232.614596025086939 ], [ 490650.79382512671873, 4405992.505435523577034 ], [ 490887.108194755972363, 4405867.715909510850906 ], [ 490890.033706119342241, 4405765.083107996731997 ], [ 491035.109837366500869, 4405757.287214705720544 ], [ 491042.656518950650934, 4405790.663158326409757 ], [ 491104.31510133104166, 4405795.197269375436008 ], [ 491250.549261816078797, 4405707.316187626682222 ], [ 491315.131607947929297, 4405617.221507619135082 ], [ 491494.774829907226376, 4405481.916083851829171 ], [ 491597.133905876544304, 4405486.153829170390964 ], [ 491668.299783207243308, 4405406.443294111639261 ], [ 491789.544573934399523, 4405306.091621328145266 ], [ 491833.404101660882588, 4405290.872903254814446 ], [ 491735.01433433679631, 4405190.824184414930642 ], [ 491860.710792490281165, 4404933.034622026607394 ], [ 491905.547947359620593, 4404876.650431888177991 ], [ 492001.969982758164406, 4404886.094037384726107 ], [ 492160.853060290275607, 4404782.812424744479358 ], [ 492247.053593501681462, 4404792.558139938861132 ], [ 492290.879827278084122, 4404765.954892905429006 ], [ 492301.492940728086978, 4404779.595550297759473 ], [ 492343.078137908712961, 4404754.870523896068335 ], [ 492556.483089611516334, 4404802.783997318707407 ], [ 492625.776796322548762, 4404726.88003090210259 ], [ 492767.161595985060558, 4404822.249075772240758 ], [ 492851.959877163812052, 4404816.953163460828364 ], [ 492910.029101383406669, 4404775.024072741158307 ], [ 492868.276355074020103, 4404731.933510332368314 ], [ 492880.202460715314373, 4404676.173980271443725 ], [ 492824.068199366563931, 4404654.717174707911909 ], [ 492826.691804292786401, 4404612.906165542080998 ], [ 493011.266418682702351, 4404628.795376264490187 ], [ 493001.170082222030032, 4404617.350799190811813 ], [ 493080.779888509889133, 4404533.528245565481484 ], [ 493006.767797793319914, 4404408.957792648114264 ], [ 493098.751557627110742, 4404371.93819210678339 ], [ 493237.625617368845269, 4404357.508292838931084 ], [ 493293.79520990268793, 4404408.412748763337731 ], [ 493411.657052720314823, 4404403.438245791941881 ], [ 493533.528215597907547, 4404482.145828805863857 ], [ 493901.438557997753378, 4404567.880859444849193 ], [ 493915.379867210518569, 4404484.707756125368178 ], [ 493828.801042443199549, 4404421.437102174386382 ], [ 493886.909479497233406, 4404278.662216202355921 ], [ 493879.950159967236686, 4404066.40661234408617 ], [ 493677.483281187422108, 4403923.432011269032955 ], [ 493731.072715707006864, 4403897.295153041370213 ], [ 493640.070288956805598, 4403672.39004697650671 ], [ 493673.105737768404651, 4403661.563764004968107 ], [ 493684.86127086012857, 4403566.294673262163997 ], [ 494039.517982916382607, 4403511.960539392195642 ], [ 493945.352754658437334, 4403494.542905800044537 ], [ 493649.19990770512959, 4403322.709623586386442 ], [ 493676.389096278522629, 4403115.764730892144144 ], [ 494320.304941260197666, 4402786.720027687959373 ], [ 494679.124045239994302, 4402291.720750386826694 ], [ 494075.582822179014329, 4401612.075235766358674 ], [ 494019.14061932900222, 4401296.897293576970696 ], [ 493365.860759600822348, 4401218.412457940168679 ], [ 493188.525596445833798, 4400436.795877625234425 ], [ 492930.480716639780439, 4399679.896940394304693 ], [ 492295.570992466178723, 4399332.99015105701983 ], [ 491979.504220621485729, 4398807.009920150972903 ], [ 491547.603037321183365, 4398694.789715087972581 ], [ 491851.841771544830408, 4398546.506338364444673 ], [ 491788.293327343417332, 4398447.342055350542068 ], [ 491710.582226439961232, 4398168.674898932687938 ], [ 491912.900784217694309, 4397926.744479425251484 ], [ 492124.077245149586815, 4397836.527158836834133 ], [ 492344.168233022734057, 4397812.331856545060873 ], [ 492462.934932919568382, 4397805.854957900010049 ], [ 492707.048965540307108, 4397764.421629342250526 ], [ 493007.946059795911424, 4397787.13798014074564 ], [ 493081.417998534278013, 4397859.877716299146414 ], [ 493132.950890991662163, 4397855.791615347377956 ], [ 493147.030883199127857, 4397961.91415458638221 ], [ 493201.64801923482446, 4397841.568804550915956 ], [ 493342.12688433623407, 4397752.457878545857966 ], [ 493363.421176565228961, 4397701.663756741210818 ], [ 493445.494744251365773, 4397644.291675740852952 ], [ 493462.326490597915836, 4397695.718933434225619 ], [ 493770.868998121761251, 4397539.972428866662085 ], [ 494040.065920585300773, 4397565.795970618724823 ], [ 494133.113138757704291, 4397617.754154345951974 ], [ 494308.644241585978307, 4397510.987649496644735 ], [ 494335.296039470355026, 4397638.389913824386895 ], [ 494417.804445616842713, 4397649.638896305114031 ], [ 494453.163742065895349, 4397579.648291384801269 ], [ 494472.617200442182366, 4397484.575564258731902 ], [ 494458.235645424982067, 4397470.81267979554832 ], [ 494531.853929837117903, 4397330.818893947638571 ], [ 494636.30243190866895, 4397056.678906681016088 ], [ 494655.803804518131074, 4397025.312063220888376 ], [ 494707.889691459829919, 4396993.556509228423238 ], [ 494704.145231969188899, 4396920.109244528226554 ], [ 494756.43757011112757, 4396875.568418660201132 ], [ 494706.459401727188379, 4396870.55287135951221 ], [ 494790.729934779810719, 4396764.30489744618535 ], [ 494764.882231269381009, 4396653.082285367883742 ], [ 494782.841749477316625, 4396645.989234652370214 ], [ 494816.438414277741686, 4396670.238897112198174 ], [ 494909.346237240824848, 4396632.763778541237116 ], [ 494832.548784611455631, 4396602.582751106470823 ], [ 494893.689264781656675, 4396571.077665396034718 ], [ 494755.39676627778681, 4396493.303807744756341 ], [ 494828.807991022593342, 4396482.133374530822039 ], [ 494812.648213742475491, 4396413.43353452347219 ], [ 495034.057976785348728, 4396258.49671673309058 ], [ 495335.455662062508054, 4396130.886219440959394 ], [ 495416.273212221974973, 4396128.007483743131161 ], [ 495592.673508448700886, 4396026.575196517631412 ], [ 495603.959717355377506, 4395842.511606439016759 ], [ 495534.988594243710395, 4395733.275789842940867 ], [ 495600.750028265931178, 4395700.930219708010554 ], [ 495648.38077831780538, 4395665.510081988759339 ], [ 495760.124222337035462, 4395526.650171573273838 ], [ 495859.939673547516577, 4395468.195628707297146 ], [ 495921.62866109557217, 4395427.708741541020572 ], [ 496036.41041708458215, 4395362.922451855614781 ], [ 496198.195662754471414, 4395280.312561192549765 ], [ 496288.639160778839141, 4395221.213446049019694 ], [ 496403.412484846892767, 4395106.889139606617391 ], [ 496479.146961716352962, 4395043.137827694416046 ], [ 496531.470577622065321, 4395016.821796064265072 ], [ 496546.307852467929479, 4394993.552748300135136 ], [ 496672.034847478440497, 4394916.640484075061977 ], [ 496839.943557626742404, 4394821.511369986459613 ], [ 496933.649988890392706, 4394749.666432577185333 ], [ 497013.309507029480301, 4394706.151340084150434 ], [ 496984.396262561378535, 4394670.769660955294967 ], [ 497030.459577800065745, 4394606.02556639816612 ], [ 497205.283157676283736, 4394422.780142343603075 ], [ 497173.413275087194052, 4394600.921894811093807 ], [ 497216.390565367939416, 4394626.18848745431751 ], [ 497242.642717967333738, 4394606.601362171582878 ], [ 497224.215922745643184, 4394668.659431171603501 ], [ 497236.945542220724747, 4394808.317775216884911 ], [ 497183.089299593761098, 4394920.476105661131442 ], [ 497216.513938921852969, 4394966.98866137303412 ], [ 497258.716586086433381, 4395037.759459060616791 ], [ 497297.801274439902045, 4395117.643425662070513 ], [ 497324.382737104140688, 4395186.400185582228005 ], [ 497404.842255406954791, 4395183.342725610360503 ], [ 497479.445388026884757, 4395149.578587336465716 ], [ 497529.592155547812581, 4395089.952487584203482 ], [ 497507.11195669445442, 4395027.564213372766972 ], [ 497482.320754141081125, 4394924.955962625332177 ], [ 497460.950313603039831, 4394799.028826154768467 ], [ 497443.735396879201289, 4394693.865593361668289 ], [ 497412.435274827003013, 4394540.162524718791246 ], [ 497426.450516619486734, 4394406.665690256282687 ], [ 497435.734102534363046, 4394145.749258026480675 ], [ 497457.584405909059569, 4394056.743601910769939 ], [ 497538.794742056285031, 4393951.548370597884059 ], [ 497575.481685953214765, 4393896.366381752304733 ], [ 497588.252444926649332, 4393800.749332705512643 ], [ 497669.982364643714391, 4393754.299383823759854 ], [ 497794.197651451569982, 4393707.749218983575702 ], [ 498008.239516164991073, 4393638.913823413662612 ], [ 498127.077967381977942, 4393572.925986845977604 ], [ 498298.05631181091303, 4393457.828827484510839 ], [ 498398.038880848500412, 4393362.749315234832466 ], [ 498508.95366352138808, 4393209.013812145218253 ], [ 498599.575070369814057, 4393142.250857480801642 ], [ 498751.827717398235109, 4393093.5025704940781 ], [ 498880.835215756727848, 4393039.044960165396333 ], [ 498984.865248223999515, 4392978.954775708727539 ], [ 499115.21853629121324, 4392889.352234554477036 ], [ 499322.276091793144587, 4392672.035298279486597 ], [ 499463.679229485569522, 4392521.207794647663832 ], [ 499543.375114764843602, 4392460.5276332302019 ], [ 499665.565374299185351, 4392434.140428538434207 ], [ 499787.173258706054185, 4392404.891791452653706 ], [ 499981.742529270646628, 4392306.790025819092989 ], [ 500217.557647025503684, 4392199.53806434944272 ], [ 500111.940531210100744, 4392092.846824717707932 ], [ 500200.599186033534352, 4392033.449962828308344 ], [ 500214.604518249456305, 4392002.397006340324879 ], [ 500219.296512659173459, 4391969.024239559657872 ], [ 500236.492419147281907, 4391934.641896811313927 ], [ 500270.875974341819528, 4391869.928248273208737 ], [ 500254.471442044421565, 4391823.403191354125738 ], [ 500263.066573465825059, 4391769.809306032024324 ], [ 500345.255270601832308, 4391705.042296694591641 ], [ 500385.763772231177427, 4391650.473396886140108 ], [ 500412.334302677598316, 4391631.26344841811806 ], [ 500435.775158465316053, 4391601.942774826660752 ], [ 500459.223925005877391, 4391586.772629861719906 ], [ 500464.698239473334979, 4391544.299396202899516 ], [ 500491.372706043592189, 4391517.964560081250966 ], [ 500514.717834895243868, 4391519.020433354191482 ], [ 500527.216269054217264, 4391482.618543402291834 ], [ 500544.413708169944584, 4391461.377413284033537 ], [ 500584.268325130047742, 4391469.471064873971045 ], [ 500597.556999952241313, 4391422.947616706602275 ], [ 500625.696391920326278, 4391428.010720207355917 ], [ 500619.446663734095637, 4391395.647299064323306 ], [ 500641.327232030685991, 4391376.437772463075817 ], [ 500663.497058597451542, 4391385.740104871802032 ], [ 500680.401623818499502, 4391385.541809471324086 ], [ 500683.527469955093693, 4391341.048629856668413 ], [ 500712.448519464407582, 4391335.990385394543409 ], [ 500747.609217421500944, 4391374.427453669719398 ], [ 500785.902193769812584, 4391391.622679016552866 ], [ 500799.192011887440458, 4391347.119491837918758 ], [ 500831.232733673008624, 4391363.304341611452401 ], [ 500840.616814156644978, 4391352.184771189466119 ], [ 500853.904772248060908, 4391327.914049565792084 ], [ 500912.517936295946129, 4391327.920774718746543 ], [ 500950.810443524213042, 4391278.371089896187186 ], [ 500985.206853267154656, 4391250.063419465906918 ], [ 501021.932249613571912, 4391253.098068103194237 ], [ 501054.325068076548632, 4391265.443847507238388 ], [ 501101.091875350510236, 4391281.631849588826299 ], [ 501129.00762428669259, 4391233.901713099330664 ], [ 501170.42654931085417, 4391223.797265358269215 ], [ 501234.285230815352406, 4391250.543263103812933 ], [ 501290.023152521403972, 4391112.577218906953931 ], [ 501391.735371535411105, 4390932.25724161695689 ], [ 501471.3755314105656, 4390880.00975455250591 ], [ 501478.652412796276622, 4390862.220438149757683 ], [ 501411.989188371167984, 4390821.343672977760434 ], [ 501637.08381289272802, 4390612.705367661081254 ], [ 501654.320593700860627, 4390631.265544072724879 ], [ 501669.557259172550403, 4390617.118397808633745 ], [ 501693.396236693428364, 4390646.445525757037103 ], [ 501723.862664535525255, 4390687.91583941411227 ], [ 501796.563234470493626, 4390621.186796173453331 ], [ 501893.494437562243547, 4390563.5650376053527 ], [ 501917.718462491931859, 4390593.914003730751574 ], [ 501750.516524760227185, 4390746.488016202114522 ], [ 501922.353803220787086, 4390820.444237985648215 ], [ 502036.534448486811016, 4390690.422741547226906 ], [ 502132.628126446681563, 4390687.008260731585324 ], [ 502159.20804493612377, 4390661.733555277809501 ], [ 502155.303243237372953, 4390638.470253790728748 ], [ 502155.308621114876587, 4390619.258957737125456 ], [ 502164.699218644760549, 4390594.989433689974248 ], [ 502184.242818533151876, 4390580.833419851958752 ], [ 502167.051694790308829, 4390556.567503463476896 ], [ 502161.825597186165396, 4390534.435865428298712 ], [ 502167.070764626201708, 4390488.811903778463602 ], [ 502150.672484565118793, 4390450.373622010461986 ], [ 502163.188397860911209, 4390415.994354088790715 ], [ 502203.464146643062122, 4390404.219297712668777 ], [ 502229.627492645988241, 4390399.831871894188225 ], [ 502250.731673364469316, 4390389.727390322834253 ], [ 502246.047610621142667, 4390362.424015757627785 ], [ 502275.754838594992179, 4390354.342022028751671 ], [ 502264.035846815735567, 4390331.076370877213776 ], [ 502278.119013149000239, 4390278.496421203948557 ], [ 502314.10308103740681, 4390250.272885471582413 ], [ 502285.961544363002758, 4390212.763073001988232 ], [ 502282.854580703540705, 4390131.855010126717389 ], [ 502381.578060348227154, 4389830.308899659663439 ], [ 502667.967443145578727, 4390125.930194309912622 ], [ 502910.509421754861251, 4389995.345812572166324 ], [ 502985.879284669121262, 4390145.258185643702745 ], [ 503056.015148182807025, 4390205.11703581828624 ], [ 502969.121366230887361, 4390291.827943284995854 ], [ 503394.976387207454536, 4390625.332659712992609 ], [ 503388.348402065283153, 4390658.835757751017809 ], [ 503467.363561141537502, 4390697.571000178344548 ], [ 503453.475664533267263, 4390795.585692162625492 ], [ 503640.579366233781911, 4390925.567415258847177 ], [ 503737.857249155465979, 4391128.459306050091982 ], [ 504173.096454378857743, 4391802.943940514698625 ], [ 504914.192375307029579, 4391932.73338192794472 ], [ 505045.235913946351502, 4392152.411316759884357 ], [ 504980.740802519605495, 4392372.428654191084206 ], [ 505049.242523432942107, 4392450.395280675962567 ], [ 504996.443036046577618, 4392517.062306265346706 ], [ 505131.614226977224462, 4392623.729387575760484 ], [ 504753.612445464241318, 4393255.142337505705655 ], [ 504868.92205342638772, 4393365.166616961359978 ], [ 504801.506633089622483, 4393507.683624320663512 ], [ 504912.103044876712374, 4393566.364292483776808 ], [ 504783.895770022762008, 4393768.497024131938815 ], [ 505287.282792063197121, 4394205.383892792277038 ], [ 505312.466124259342905, 4394300.381774425506592 ], [ 506037.784219596418552, 4394834.96364856697619 ], [ 506054.749071308586281, 4395086.25729405041784 ], [ 505652.183428679476492, 4395459.580714596435428 ], [ 505459.024140371999238, 4395598.160916494205594 ], [ 505088.189582294144202, 4395758.967555213719606 ], [ 504991.695747385383584, 4395800.812127780169249 ], [ 505136.679201022954658, 4395850.051697811111808 ], [ 505282.691428300226107, 4395908.806111512705684 ], [ 505402.938253153057303, 4395963.494208615273237 ], [ 505463.167625363799743, 4396015.721832128241658 ], [ 505722.591416167328134, 4396258.379154139198363 ], [ 505933.470266024232842, 4396412.086628443561494 ], [ 506214.812744221359026, 4396573.470169166103005 ], [ 506405.172852154471911, 4396736.474669564515352 ], [ 506823.324934769596439, 4396778.320770709775388 ], [ 507561.213280102645513, 4396970.53824720159173 ], [ 508034.531341080146376, 4397069.617713298648596 ], [ 508111.243657208280638, 4397094.514573480933905 ], [ 508181.235052136238664, 4397112.623854479752481 ], [ 508210.559305341157597, 4397139.680000755004585 ], [ 508228.604853142867796, 4397158.833133713342249 ], [ 508257.957999032572843, 4397174.635606769472361 ], [ 508428.110275897313841, 4397221.922445167787373 ], [ 508477.022242168022785, 4397243.285395452752709 ], [ 508529.813723258150276, 4397181.957962365821004 ], [ 508662.728089737531263, 4397213.016023213043809 ], [ 508686.716568896197714, 4397235.217932865023613 ], [ 508745.950008440064266, 4397313.418658497743309 ], [ 508785.419021077163052, 4397377.413325756788254 ], [ 508798.046075869002379, 4397381.856082648970187 ], [ 508808.742479545180686, 4397351.014469885267317 ], [ 508821.254119615652598, 4397321.651059513911605 ], [ 508828.540338411403354, 4397290.350523022934794 ], [ 508993.474807685124688, 4397345.989996099844575 ], [ 509342.141953505575657, 4397165.83322330377996 ], [ 509519.436308524222113, 4397046.342283907346427 ], [ 509748.813230514584575, 4396924.64614874497056 ], [ 509944.957920596119948, 4397559.81036410946399 ], [ 509915.118411581323016, 4397692.254867983981967 ], [ 509903.341166026133578, 4397740.784624167717993 ], [ 509890.01353419420775, 4397782.231545764021575 ], [ 509868.889654716069344, 4397815.577646839432418 ], [ 509789.944025710166898, 4397872.101311741396785 ], [ 509731.325566597981378, 4397915.510857410728931 ], [ 509703.161830838362221, 4397959.980326198972762 ], [ 509707.763613828108646, 4398027.742659064009786 ], [ 509745.255326558835804, 4398155.101379345171154 ], [ 509776.870796144939959, 4398273.118962281383574 ], [ 509839.523756969196256, 4398382.808104363270104 ], [ 509853.198850766348187, 4398476.941230050288141 ], [ 509857.160321806033608, 4398635.056103057228029 ], [ 509888.936534511914942, 4398838.277971810661256 ], [ 510314.789147481846157, 4399210.46200308855623 ], [ 510612.641723009059206, 4399231.378034885972738 ], [ 511345.768143341818359, 4399315.621138527058065 ], [ 511842.488043143122923, 4399982.007820897735655 ], [ 512296.221883671707474, 4400033.086553141474724 ], [ 511986.165763135242742, 4400728.621489846147597 ], [ 510954.283692349330522, 4401490.895229497924447 ], [ 508781.109421646455303, 4401257.06114885956049 ], [ 507808.750528411997948, 4402481.327441369183362 ], [ 507862.131606317416299, 4402807.203623660840094 ], [ 507143.441157128952909, 4403247.004220720380545 ], [ 507010.962517944164574, 4403802.378687893971801 ], [ 506996.362075615092181, 4404413.1892264271155 ], [ 506936.6228427105234, 4404906.657868572510779 ], [ 506774.079758550971746, 4404811.85221245419234 ], [ 505753.650885789480526, 4404273.23424924351275 ], [ 505202.148919665953144, 4404257.490762042813003 ], [ 504880.5124659902649, 4404638.572478845715523 ], [ 504383.610893234785181, 4404603.688875088468194 ], [ 503616.731127079750877, 4405074.525330370292068 ], [ 503350.798751449445263, 4404916.093577130697668 ], [ 502778.027662390493788, 4405068.59281263127923 ], [ 502407.117155719432048, 4405306.444225400686264 ], [ 502345.501659127126914, 4405646.065631842240691 ], [ 502338.350120343442541, 4405516.719900580123067 ], [ 502219.049016003322322, 4405357.907323766499758 ], [ 502040.413726581842639, 4405327.525108363479376 ], [ 502020.00842996686697, 4405278.652415034361184 ], [ 501834.16432654223172, 4405167.020026615820825 ], [ 501601.283532513654791, 4405072.573973236605525 ], [ 501588.015273776079994, 4405104.923720019869506 ], [ 501591.90332443092484, 4405140.329159411601722 ], [ 501561.479910691443365, 4405165.605582773685455 ], [ 501524.037378241308033, 4405143.345289229415357 ], [ 501481.371218589018099, 4405082.016988588497043 ], [ 501275.998209543467965, 4404947.109505138359964 ], [ 501238.556395645544399, 4404908.668816436082125 ], [ 501033.890334564610384, 4404861.824468366801739 ], [ 501024.035573711676989, 4404800.425548632629216 ], [ 500931.979644737846684, 4404807.494725019671023 ], [ 500880.498294509015977, 4404733.660588011145592 ], [ 500773.18863307236461, 4404701.573989905416965 ], [ 500791.046814963279758, 4404634.995174755342305 ], [ 500372.629866997012869, 4404617.327703258953989 ], [ 500450.798275713634212, 4404497.222629223018885 ], [ 500345.718656871584244, 4404455.009120790287852 ], [ 500323.101757311960682, 4404358.927397798746824 ], [ 500261.077470462420024, 4404358.42559667583555 ], [ 500250.929685278446414, 4404407.980585421435535 ], [ 500039.753362641320564, 4404504.889721367508173 ], [ 500086.220684188709129, 4404384.736457530409098 ], [ 499742.853438337275293, 4404384.540510574355721 ], [ 499642.544017594656907, 4404298.241686756722629 ], [ 499591.84535362716997, 4404266.324599171057343 ], [ 499479.470298554108012, 4404335.298207298852503 ], [ 499479.211587782308925, 4404560.189537131227553 ], [ 499207.302331717393827, 4404567.526825135573745 ], [ 498693.328755389258731, 4404863.331137864850461 ], [ 498819.891250239859801, 4405228.977147910743952 ], [ 499006.097426771128085, 4405561.155088456347585 ], [ 499041.667967890214641, 4405837.628792280331254 ], [ 499116.604397096147295, 4405892.091927791945636 ], [ 499107.368363153829705, 4405971.50379999447614 ], [ 499146.380635259498376, 4406072.630217383615673 ], [ 499254.2681477292208, 4406188.377854391001165 ], [ 499308.731123375706375, 4406227.173624379560351 ], [ 499298.496807980933227, 4406265.775659083388746 ], [ 499534.251033180044033, 4406304.913738054223359 ], [ 499575.69081713585183, 4406320.804599002934992 ], [ 499555.626627885911148, 4406474.954920688644052 ], [ 499544.692535053472966, 4406564.621593092568219 ], [ 499466.216551681922283, 4406555.004125349223614 ], [ 499457.330059847969096, 4406654.459806735627353 ], [ 499216.643520436133258, 4406662.216403246857226 ], [ 499176.092212393356021, 4406699.645330571569502 ], [ 499066.117790916352533, 4406688.525995220988989 ], [ 499012.820737488626037, 4406780.751431675627828 ], [ 498906.964909769652877, 4407013.493635080754757 ], [ 498853.275201757089235, 4407256.406877674162388 ], [ 498858.711149996903259, 4407320.75614342931658 ], [ 498902.430544502509292, 4407385.854546601884067 ], [ 498873.575615905981977, 4407421.751835513859987 ], [ 498897.765776533866301, 4407503.168166868388653 ], [ 498830.144452059816103, 4407562.900154321454465 ], [ 498732.378135930688586, 4407553.093388288281858 ], [ 498732.856367777101696, 4407701.915429454296827 ], [ 498658.784717521804851, 4407759.574567412026227 ], [ 498619.794820490234997, 4407770.702369758859277 ], [ 498654.111113635066431, 4407804.069982582703233 ], [ 498621.439192520803772, 4407967.337356829084456 ], [ 498733.75105781131424, 4408143.820290643721819 ], [ 498517.686109280271921, 4408217.78740549646318 ], [ 498357.088081496243831, 4408530.325918721035123 ], [ 498228.107605646597221, 4408485.549275278113782 ], [ 498212.502878336934373, 4408540.391528831794858 ], [ 498217.98327488504583, 4408629.390653972513974 ], [ 498156.596022469748277, 4408679.349305055104196 ], [ 498260.833495304628741, 4408794.85121485311538 ], [ 498186.202856313786469, 4408889.507110629230738 ], [ 498081.178953790687956, 4408947.379125052131712 ], [ 498025.026407337922137, 4408942.432289647869766 ], [ 497949.066347233776469, 4408977.346570967696607 ], [ 497859.404594101477414, 4409002.653955013491213 ], [ 497762.096223944623489, 4409066.466010733507574 ], [ 497713.621252290555276, 4409094.726528733037412 ], [ 497664.506049672025256, 4409098.792383302934468 ], [ 497644.243236582668032, 4409126.101396474055946 ], [ 497566.2897480839747, 4409177.7014514002949 ], [ 497531.217320937663317, 4409236.369325880892575 ], [ 497507.618151783710346, 4409315.95467927865684 ], [ 497510.391829724831041, 4409372.657059285789728 ], [ 497473.722006043186411, 4409539.083084733225405 ], [ 497292.913615588389803, 4409649.776840973645449 ], [ 497225.012732922739815, 4409724.784053478389978 ], [ 497200.22131479496602, 4409736.690902660600841 ], [ 497182.896741985285189, 4409764.388547664508224 ], [ 497198.512655690603424, 4409837.201471283100545 ], [ 497466.639459803001955, 4410320.823414394631982 ], [ 497313.435963075433392, 4410564.070916065014899 ], [ 497291.409162189229392, 4410572.302838867530227 ], [ 497290.505573534523137, 4410605.677029627375305 ], [ 497265.738039138843305, 4410652.766642676666379 ], [ 497161.601410891162232, 4410758.397875895723701 ], [ 497145.550282307376619, 4410799.091792521066964 ], [ 497128.803692250628956, 4410809.841630704700947 ], [ 497087.046613662911113, 4410808.936222486197948 ], [ 497084.98354241164634, 4410827.904739290475845 ], [ 497008.55619660805678, 4410768.511640681885183 ], [ 496982.604896598029882, 4410715.037054616957903 ], [ 496988.524590839166194, 4410605.334892514161766 ], [ 497012.820201271330006, 4410536.757434369064867 ], [ 497009.601259583025239, 4410509.333740437403321 ], [ 496926.060063118755352, 4410491.076150584965944 ], [ 496808.109501926752273, 4410474.209993259049952 ], [ 496758.988358742091805, 4410442.233020066283643 ], [ 496726.844973084924277, 4410400.19363715685904 ], [ 496704.321290152729489, 4410327.062718468718231 ], [ 496652.912281191500369, 4410309.704435573890805 ], [ 496547.347554691892583, 4410294.668180446140468 ], [ 496490.19416289194487, 4410270.69874700345099 ], [ 496449.117235000594519, 4410267.055121941491961 ], [ 496392.671741480531637, 4410275.77182574942708 ], [ 496339.443996636080556, 4410303.910171117633581 ], [ 496211.45306280470686, 4410424.193858319893479 ], [ 496152.724891339545138, 4410450.282972614280879 ], [ 496035.23157863644883, 4410445.315234632231295 ], [ 495954.478535572707187, 4410479.641474419273436 ], [ 495908.602206362353172, 4410522.640142113901675 ], [ 495846.698008221690543, 4410620.497691214084625 ], [ 495651.955104896391276, 4411159.527141951024532 ], [ 495635.517096785828471, 4411301.234121836721897 ], [ 495584.705283852294087, 4411511.062833119183779 ], [ 495530.633504297526088, 4411641.349129397422075 ], [ 495400.505361142451875, 4411961.358870697207749 ], [ 495420.815451898495667, 4412167.472763776779175 ], [ 495395.175422749423888, 4412257.976334071718156 ], [ 495326.488086030352861, 4412489.271787186153233 ], [ 495261.386889778252225, 4412566.093104004859924 ], [ 495223.798254955268931, 4412623.696885053068399 ], [ 495155.922051164961886, 4412663.95041783247143 ], [ 495136.210613881878089, 4412695.494527905248106 ], [ 495109.670754119404592, 4412815.256064461544156 ], [ 495101.447831915516872, 4412862.77516033872962 ], [ 495103.399055697314907, 4413038.256582411006093 ], [ 495078.206637001479976, 4413109.560182479210198 ], [ 495066.809554446663242, 4413220.610773235559464 ], [ 495035.236445041897241, 4413341.951947313733399 ], [ 495021.477647750638425, 4413357.499185997061431 ], [ 495025.620658652216662, 4413376.464301336556673 ], [ 495033.902753996197134, 4413408.445597144775093 ], [ 495038.502667208842468, 4413433.115196795202792 ], [ 495041.73275604652008, 4413455.510438666678965 ], [ 495040.844667744066101, 4413497.087046479806304 ], [ 495038.107555105001666, 4413522.682611995376647 ], [ 495033.52793866751017, 4413542.330429572612047 ], [ 495017.513857727404684, 4413600.376384072005749 ], [ 494991.411757480876986, 4413675.787479998543859 ], [ 494974.002687113359571, 4413718.296154073439538 ], [ 494861.588874075678177, 4413677.693859380669892 ], [ 494790.005288617510814, 4413657.187372405081987 ], [ 494717.053974719834514, 4413638.047651601955295 ], [ 494667.496281720814295, 4413625.740219349972904 ], [ 494600.968396386713721, 4413608.883477072231472 ], [ 494536.321590546693187, 4413591.981573760509491 ], [ 492252.120962635090109, 4413734.333279370330274 ], [ 492084.092092405422591, 4413935.782121876254678 ], [ 491381.797573972202372, 4414583.579993286170065 ], [ 491473.998921961872838, 4414643.643208297900856 ], [ 491614.298578237125184, 4414752.777940997853875 ], [ 491627.625720154726878, 4414781.087496754713356 ], [ 491730.152760752011091, 4414865.826264620758593 ], [ 491764.914207409834489, 4414917.076340297237039 ], [ 491796.181505599699449, 4414939.639889276586473 ], [ 491830.06810657173628, 4414997.073245521634817 ], [ 491844.783659058215562, 4415013.572561875917017 ], [ 491847.424364080652595, 4415028.353367459960282 ], [ 491847.191023117979057, 4415042.049556768499315 ], [ 491854.922164383053314, 4415059.710627362132072 ], [ 491862.209620400331914, 4415070.246737818233669 ], [ 491874.166635929374024, 4415081.887768865562975 ], [ 491875.188226931320969, 4415085.760169729590416 ], [ 491883.024350737745408, 4415089.669722502119839 ], [ 491892.202945111261215, 4415133.955359351821244 ], [ 491909.364822573086713, 4415184.059431025758386 ], [ 491919.884335013513919, 4415219.153863879851997 ], [ 491926.217172801261768, 4415224.652182842604816 ], [ 491930.697145586134866, 4415232.516512756235898 ], [ 491929.919690011709463, 4415241.174413845874369 ], [ 491934.136786215822212, 4415243.01236417144537 ], [ 491934.912344268348534, 4415248.749635477550328 ], [ 491933.318535160797182, 4415253.523811155930161 ], [ 491936.516912452992983, 4415262.266305053606629 ], [ 491944.515595067990944, 4415274.588656009174883 ], [ 491947.725858450226951, 4415286.516503938473761 ], [ 491946.94119661062723, 4415296.461874849162996 ], [ 491942.556173970282543, 4415305.611927620135248 ], [ 491944.959376544051338, 4415314.355264463461936 ], [ 491943.375220539048314, 4415328.274857475422323 ], [ 491945.787807598535437, 4415337.817300151102245 ], [ 491938.997938896121923, 4415336.636888274922967 ], [ 491919.097466043196619, 4415396.713643291033804 ], [ 491925.921751554473303, 4415430.50234410725534 ], [ 491931.512747975939419, 4415438.05473536811769 ], [ 491928.721590081113391, 4415442.430620689876378 ], [ 491923.532720656425226, 4415443.235220552422106 ], [ 491920.365948003192898, 4415464.315236405469477 ], [ 491906.812542996020056, 4415486.604925215244293 ], [ 491907.641618156456389, 4415494.439817105419934 ], [ 491901.269800395471975, 4415500.362243861891329 ], [ 491895.371676727721933, 4415606.22910089045763 ], [ 491898.496830954158213, 4415618.578779866918921 ], [ 491886.840372552862391, 4415647.603486833162606 ], [ 491876.069593199645169, 4415657.204322202131152 ], [ 491849.840779985650443, 4415682.360011168755591 ], [ 491825.09986791718984, 4415707.625187282450497 ], [ 492060.583629155589733, 4415844.203144645318389 ], [ 492045.127503611380234, 4415853.442355231381953 ], [ 492012.639484043116681, 4415885.585179748013616 ], [ 491996.605835895810742, 4415906.501064230687916 ], [ 491973.137534711277112, 4415938.501427906565368 ], [ 491962.262892362952698, 4415954.728259026072919 ], [ 491956.823876170266885, 4415961.215703381225467 ], [ 491949.460974229790736, 4415967.394412112422287 ], [ 491938.830152887676377, 4415971.545490185730159 ], [ 491899.463864287885372, 4415982.197627204470336 ], [ 491873.439298971672542, 4415989.42841755785048 ], [ 491851.323807666311041, 4415998.586322027258575 ], [ 491832.755896050890442, 4416007.396432349458337 ], [ 491811.445718545699492, 4416018.040835436433554 ], [ 491790.815724286658224, 4416025.144038964062929 ], [ 491703.361820176127367, 4416052.197613811120391 ], [ 491681.627926439396106, 4416065.994910284876823 ], [ 491664.78950239851838, 4416076.834634210914373 ], [ 491613.866172329348046, 4416080.042451971210539 ], [ 491588.095391781185754, 4416084.288351722992957 ], [ 491571.424458803317975, 4416091.809545687399805 ], [ 491571.15114643634297, 4416092.042922897264361 ], [ 491561.130591931752861, 4416098.824279269203544 ], [ 491557.322896832483821, 4416103.512196776457131 ], [ 491558.091394444811158, 4416118.150712994858623 ], [ 491551.708455902233254, 4416121.032370154745877 ], [ 491554.286521683505271, 4416125.380262752994895 ], [ 491555.893593312823214, 4416132.981189096346498 ], [ 491558.774253575713374, 4416140.392027796246111 ], [ 491564.283247995597776, 4416151.240603550337255 ], [ 491572.211953218735289, 4416162.419477846473455 ], [ 491579.897740119427908, 4416170.402163057588041 ], [ 491734.812284678395372, 4416295.505518181249499 ], [ 491749.615884053695481, 4416308.575041885487735 ], [ 491755.581364499870688, 4416315.01702494174242 ], [ 491757.885052619036287, 4416318.777044831775129 ], [ 491762.712929933099076, 4416332.589891059324145 ], [ 491767.31133727793349, 4416347.668255748227239 ], [ 491772.034192495048046, 4416367.186025576665998 ], [ 491773.883482351666316, 4416377.683536359108984 ], [ 491778.022855675953906, 4416387.279575578868389 ], [ 491788.702263438666705, 4416405.081724153831601 ], [ 491797.661858712672256, 4416421.509478827938437 ], [ 491803.637825158250052, 4416437.840556682087481 ], [ 491809.055305871006567, 4416459.532979213632643 ], [ 491814.574601756059565, 4416480.537168880924582 ], [ 491824.235414043359924, 4416505.299435405060649 ], [ 491834.811180210439488, 4416530.360405284911394 ], [ 491836.244461486581713, 4416535.664119779132307 ], [ 491837.581944487348665, 4416547.316475311294198 ], [ 491840.420093719672877, 4416579.344704505056143 ], [ 491841.639639107102994, 4416592.639816456474364 ], [ 491843.423214079986792, 4416597.776675846427679 ], [ 491845.206549599533901, 4416602.691559061408043 ], [ 491860.823190429946408, 4416625.394231303595006 ], [ 491860.882147345109843, 4416632.586219771765172 ], [ 491859.462709831655957, 4416640.234836956486106 ], [ 491856.947869197116233, 4416646.752540431916714 ], [ 491850.646200731047429, 4416653.385273916646838 ], [ 491836.097697361605242, 4416662.246594682335854 ], [ 491798.109797130920924, 4416679.357329761609435 ], [ 491778.117136295419186, 4416689.201309977099299 ], [ 491763.510670553136151, 4416699.661066201515496 ], [ 491749.71027287672041, 4416712.417440850287676 ], [ 491732.074480428709649, 4416727.730727695859969 ], [ 491721.653553639131133, 4416743.047328901477158 ], [ 491711.12525179667864, 4416761.782506381161511 ], [ 491694.641712527372874, 4416783.154601510614157 ], [ 491671.272685271163937, 4416800.649643988348544 ], [ 491647.329041952965781, 4416816.325176150538027 ], [ 491636.906560533738229, 4416822.152381800115108 ], [ 491625.559766642574687, 4416826.959521411918104 ], [ 491616.279280237387866, 4416829.600133246742189 ], [ 491608.484300004318357, 4416830.518801983445883 ], [ 491598.278234447818249, 4416830.996177477762103 ], [ 491581.318683010700624, 4416831.125846924260259 ], [ 491555.518821554665919, 4416829.955662010237575 ], [ 491453.600186991505325, 4416824.075684429146349 ], [ 491378.856776074098889, 4416826.213000509887934 ], [ 491322.227222396468278, 4416828.441428211517632 ], [ 491291.048762737831566, 4416833.271630900911987 ], [ 491275.804875025409274, 4416838.660877373069525 ], [ 491271.226559356902726, 4416841.751590511761606 ], [ 491266.531314679828938, 4416847.239791919477284 ], [ 491252.913364729029126, 4416869.064623011276126 ], [ 491245.357260453107301, 4416876.953467682003975 ], [ 491238.141646332165692, 4416883.576660157181323 ], [ 491228.516918031382374, 4416891.467895946465433 ], [ 491206.981090754095931, 4416903.712503400631249 ], [ 491184.411265233706217, 4416916.18034288380295 ], [ 491170.205239500384778, 4416924.421008349396288 ], [ 491162.759604406484868, 4416931.621679220348597 ], [ 491154.982728906907141, 4416940.654051905497909 ], [ 491146.396312950353604, 4416951.851647739298642 ], [ 491136.697266365285031, 4416947.112592008896172 ], [ 491131.442186545580626, 4416956.197556176222861 ], [ 491121.480224723578431, 4416975.299162033945322 ], [ 491104.747126241854858, 4417000.768310900777578 ], [ 491092.78200092917541, 4417009.927716564387083 ], [ 491077.219111785641871, 4417019.879363732412457 ], [ 491065.260102152999025, 4417034.210872130468488 ], [ 491054.908465368440375, 4417056.098836616612971 ], [ 491052.530876250762958, 4417069.620028434321284 ], [ 491046.568744173680898, 4417087.906833313405514 ], [ 491038.604578633152414, 4417104.619955596514046 ], [ 491026.913955614727456, 4417121.670431329868734 ], [ 491017.749451668118127, 4417127.963160956278443 ], [ 491006.296954011369962, 4417136.655949745327234 ], [ 490982.01712904474698, 4417162.378445094451308 ], [ 490960.953098470810801, 4417182.270310645923018 ], [ 490937.477878897159826, 4417201.476967925205827 ], [ 490915.487517072702758, 4417218.517653807066381 ], [ 490882.386399049544707, 4417243.773722179234028 ], [ 490874.853335847437847, 4417248.854901367798448 ], [ 490865.258813951688353, 4417252.717679897323251 ], [ 490854.115829770104028, 4417255.472439515404403 ], [ 490841.906076293031219, 4417259.638050242327154 ], [ 490839.650377433514223, 4417260.395479003898799 ], [ 490827.333413054409903, 4417267.802108812145889 ], [ 490817.771937660872936, 4417277.780379405245185 ], [ 490804.493550774408504, 4417295.954097336158156 ], [ 490798.547078687115572, 4417305.317601758986712 ], [ 490793.629381485690828, 4417317.199311657808721 ], [ 490789.511738869710825, 4417326.227652397938073 ], [ 490758.532902701117564, 4417359.850245985202491 ], [ 490755.126873328117654, 4417363.550290961749852 ], [ 490725.061732355563436, 4417396.184117997996509 ], [ 490674.80328925763024, 4417446.367812015116215 ], [ 490672.28483127488289, 4417448.879232091829181 ], [ 490651.409655734605622, 4417468.128000405617058 ], [ 490634.957187954219989, 4417483.298116340301931 ], [ 490538.996625410742126, 4417567.912108218297362 ], [ 490488.912895625981037, 4417612.36981450393796 ], [ 490432.742298947123345, 4417662.240629780106246 ], [ 490364.156492396432441, 4417728.198690350167453 ], [ 490312.865501489723101, 4417776.099743230268359 ], [ 490307.523092924035154, 4417782.499474932439625 ], [ 490280.353222818521317, 4417803.888252679258585 ], [ 490269.525712561851833, 4417811.948729961179197 ], [ 490265.324645288172178, 4417815.183858375996351 ], [ 490237.454303715145215, 4417836.695771631784737 ], [ 490231.074961696984246, 4417840.877109644934535 ], [ 490195.562267918314319, 4417867.915102238766849 ], [ 490182.631177457747981, 4417875.057200089097023 ], [ 490164.824732473469339, 4417879.441981199197471 ], [ 490153.50033308629645, 4417879.800646873190999 ], [ 490135.180029039445799, 4417876.749914973974228 ], [ 490075.597205222351477, 4417888.969322985038161 ], [ 490009.045847863540985, 4417905.515777596272528 ], [ 489944.190937361505348, 4417918.497839717194438 ], [ 489931.58015046082437, 4417921.99951143655926 ], [ 489923.387793324596714, 4417925.206798740662634 ], [ 489914.974350338394288, 4417929.269000395201147 ], [ 489903.796993382740766, 4417930.882015476003289 ], [ 489893.541437730949838, 4417931.528224145062268 ], [ 489888.66888671828201, 4417930.957536052912474 ], [ 489883.334282346186228, 4417929.999002850614488 ], [ 489878.34813121939078, 4417927.55276196449995 ], [ 489872.780015047232155, 4417924.530154968611896 ], [ 489833.321517546020914, 4417901.175084038637578 ], [ 489778.261343035090249, 4417869.172873754985631 ], [ 489730.547467754397076, 4417847.083567146211863 ], [ 489713.001601949974429, 4417841.735338935628533 ], [ 489700.162338068359531, 4417840.6205685287714 ], [ 489697.213964495342225, 4417840.902019574306905 ], [ 489684.343658446334302, 4417842.118081385269761 ], [ 489674.105560766649432, 4417843.10862600710243 ], [ 489666.68875739473151, 4417844.650308098644018 ], [ 489658.103908075136133, 4417848.335662844590843 ], [ 489644.81757454178296, 4417857.88761040661484 ], [ 489631.731068099848926, 4417869.803370401263237 ], [ 489622.378848550259136, 4417881.114735718816519 ], [ 489615.298371921177022, 4417891.102255344390869 ], [ 489604.233193697058596, 4417906.045306788757443 ], [ 489593.922041525773238, 4417922.34140966553241 ], [ 489585.273340230342001, 4417935.516473966650665 ], [ 489582.9628599609714, 4417971.047133198939264 ], [ 489582.88228860066738, 4417993.422580782324076 ], [ 489583.588642487069592, 4418009.981142899952829 ], [ 489588.219461320550181, 4418046.390244841575623 ], [ 489592.500731559586711, 4418070.935126106254756 ], [ 489598.820443184464239, 4418086.109777964651585 ], [ 489611.103306392964441, 4418099.445000777952373 ], [ 489727.848824923101347, 4418191.674055607058108 ], [ 489743.403272307303268, 4418203.961794740520418 ], [ 489750.294700351252686, 4418212.398784724995494 ], [ 489755.009468655276578, 4418222.891995636746287 ], [ 489766.633864118135534, 4418261.811275868676603 ], [ 489771.725157846347429, 4418279.074310869909823 ], [ 489800.376812796166632, 4418377.527450110763311 ], [ 489803.728862620715518, 4418398.078103465028107 ], [ 489801.932410930923652, 4418428.791116500273347 ], [ 489797.956493047415279, 4418453.003098252229393 ], [ 489794.993639897089452, 4418467.846269100904465 ], [ 489788.402496065828018, 4418498.388120010495186 ], [ 489778.005721201188862, 4418533.396827325224876 ], [ 489765.562757919891737, 4418572.004334448836744 ], [ 489754.142660147801507, 4418602.153138659894466 ], [ 489739.398640335595701, 4418632.650495909154415 ], [ 489725.900117746554315, 4418655.044017598964274 ], [ 489713.779539459559601, 4418672.529997611418366 ], [ 489697.07081608689623, 4418690.821311086416245 ], [ 489685.273622854845598, 4418700.88174385111779 ], [ 489671.534643370076083, 4418709.57965970505029 ], [ 489653.897734549536835, 4418717.594753398559988 ], [ 489633.847438419586979, 4418723.093718153424561 ], [ 489617.484027949220035, 4418724.869589999318123 ], [ 489612.528011757705826, 4418725.40908170491457 ], [ 489579.409989412408322, 4418724.089073243550956 ], [ 489558.777181636425667, 4418722.285960933193564 ], [ 489541.203293577535078, 4418720.056953262537718 ], [ 489526.268575216061436, 4418716.681177334859967 ], [ 489516.813034218037501, 4418714.119219111278653 ], [ 489507.126131087134127, 4418711.113635105080903 ], [ 489488.690541283867788, 4418703.769344602711499 ], [ 489486.201524788048118, 4418708.456505560316145 ], [ 489466.318267141177785, 4418748.217958077788353 ], [ 489448.834903939801734, 4418786.710872956551611 ], [ 489440.703653703909367, 4418790.029590870253742 ], [ 489431.851977681973949, 4418797.666784461587667 ], [ 489429.828983669285662, 4418799.412112722173333 ], [ 489417.456556250574067, 4418807.187387911602855 ], [ 489452.749853099929169, 4418886.251433591358364 ], [ 489465.972148162021767, 4418912.26007482316345 ], [ 489473.088442126754671, 4418922.871895582415164 ], [ 489486.063976551988162, 4418937.349161338061094 ], [ 489491.394487852056045, 4418942.014452698640525 ], [ 489499.426369586784858, 4418947.319765572436154 ], [ 489538.485733700392302, 4418969.463901480659842 ], [ 489561.075062147458084, 4418983.894823013804853 ], [ 489594.116399814840406, 4419005.004183546639979 ], [ 489629.445746375422459, 4419030.87200328335166 ], [ 489642.87452686909819, 4419039.644088045693934 ], [ 489654.686114379903302, 4419046.931137003004551 ], [ 489665.46856783493422, 4419051.544764224439859 ], [ 489675.788141833152622, 4419055.126835680566728 ], [ 489685.045814631448593, 4419057.067720028571784 ], [ 489688.507811757794116, 4419057.78446867223829 ], [ 489689.730196513002738, 4419058.038091353140771 ], [ 489705.988687164150178, 4419061.356905972585082 ], [ 489726.130315299145877, 4419067.189974750392139 ], [ 489727.600747360440437, 4419067.609752926044166 ], [ 489738.895631391031202, 4419072.045211590826511 ], [ 489746.122131873737089, 4419076.031098777428269 ], [ 489751.913721082441043, 4419080.596062601543963 ], [ 489758.116331385797821, 4419085.782017260789871 ], [ 489765.564684263372328, 4419089.534548250958323 ], [ 489774.456344525620807, 4419092.608119354583323 ], [ 489783.567584735050332, 4419093.739099970087409 ], [ 489793.420144457661081, 4419093.259759805165231 ], [ 489803.390387141320389, 4419091.315220828168094 ], [ 489853.518872747721616, 4419077.974113034084439 ], [ 489901.564737120061181, 4419059.963456828147173 ], [ 489950.145502998435404, 4419045.626133879646659 ], [ 489973.861886777915061, 4419040.567132895812392 ], [ 489992.77065068797674, 4419038.267035613767803 ], [ 490018.551549969357438, 4419036.979090194217861 ], [ 490047.888230851618573, 4419036.252636640332639 ], [ 490079.294476570212282, 4419036.666790723800659 ], [ 490086.018045595323201, 4419041.741344696842134 ], [ 490087.951288363139611, 4419043.203886921517551 ], [ 490101.325557799544185, 4419056.494097609072924 ], [ 490110.654347076662816, 4419067.236828708089888 ], [ 490126.441110513347667, 4419095.807134632021189 ], [ 490140.874485144973733, 4419115.400216927751899 ], [ 490150.502639974700287, 4419133.068320968188345 ], [ 490151.285709519695956, 4419137.26269244030118 ], [ 490164.268844454840291, 4419165.548127164132893 ], [ 490173.000209871504921, 4419183.694669298827648 ], [ 490184.030278089165222, 4419201.827165079303086 ], [ 490193.99969138414599, 4419205.92093660030514 ], [ 490210.968649129383266, 4419210.582879678346217 ], [ 490215.928573383076582, 4419233.295958100818098 ], [ 490217.663203480362426, 4419246.534717403352261 ], [ 490210.47943764552474, 4419275.53425073903054 ], [ 490196.508261212729849, 4419282.744276176206768 ], [ 490176.356949352019001, 4419295.212061199359596 ], [ 490092.864198499242775, 4419345.231772888451815 ], [ 490085.085373741632793, 4419349.892317123711109 ], [ 490044.093979918572586, 4419376.838333992287517 ], [ 490040.542146771622356, 4419379.173738930374384 ], [ 490018.448680130706634, 4419395.984150166623294 ], [ 490011.808910487452522, 4419402.496795920655131 ], [ 489999.452315581496805, 4419415.53199405502528 ], [ 489988.92166435776744, 4419426.433827308937907 ], [ 489981.941066761792172, 4419433.657276458106935 ], [ 489972.443396423012018, 4419443.758655616082251 ], [ 489968.181429895863403, 4419451.888654606416821 ], [ 489964.899727137119044, 4419458.152751135639846 ], [ 489964.464109870488755, 4419477.787281264550984 ], [ 489965.975612697075121, 4419496.50914076436311 ], [ 490000.19457522261655, 4419623.23588096909225 ], [ 489998.800310253805947, 4419739.476543250493705 ], [ 490002.957708801026456, 4419795.09881401527673 ], [ 490011.782854700111784, 4419813.333856738172472 ], [ 490045.842891661275644, 4419885.410037506371737 ], [ 490071.336136937781703, 4419927.907830274663866 ], [ 490083.89788827218581, 4419948.346779273822904 ], [ 490214.011473808204755, 4420136.926810248754919 ], [ 490168.154562279698439, 4420204.467175027355552 ], [ 490028.454584152670577, 4420271.330818876624107 ], [ 489902.158828056417406, 4420328.534318303689361 ], [ 489773.369954424269963, 4420379.305890291929245 ], [ 489753.783963231486268, 4420383.782844972796738 ], [ 489724.103550879692193, 4420385.532011495903134 ], [ 489603.157049041532446, 4420427.583254259079695 ], [ 489569.028791979304515, 4420438.129434800706804 ], [ 489521.246392323984765, 4420454.443758198991418 ], [ 489401.337736432265956, 4420497.795361348427832 ], [ 489206.53841544437455, 4420484.638875056058168 ], [ 489177.662599512608722, 4420481.02825165912509 ], [ 489158.630256406613626, 4420477.85879385471344 ], [ 489143.732616629509721, 4420474.228440711274743 ], [ 489071.046071813558228, 4420449.448471950367093 ], [ 489076.326274084218312, 4420425.51162954326719 ], [ 489090.20708718302194, 4420399.142918725498021 ], [ 489091.133648878720123, 4420389.840696735307574 ], [ 489090.892841365770437, 4420382.771027989685535 ], [ 489090.194215820753016, 4420378.199271592311561 ], [ 489087.436121003818698, 4420373.419582304544747 ], [ 489083.054834660026245, 4420368.797602244652808 ], [ 489072.72980440966785, 4420360.366109485737979 ], [ 489043.612054821103811, 4420337.410919179208577 ], [ 489027.297298385761678, 4420322.994677729904652 ], [ 489009.190300863119774, 4420304.130386592820287 ], [ 489002.077776155492757, 4420295.694360942579806 ], [ 488928.795465149509255, 4420179.838870109058917 ], [ 488881.670426475640852, 4420113.891052195802331 ], [ 488876.496924153179862, 4420105.263637145981193 ], [ 488835.04867309104884, 4420036.244533935561776 ], [ 488819.387599987036083, 4420013.803266650997102 ], [ 488813.691188307246193, 4420004.122264492325485 ], [ 488802.605320982402191, 4419990.164994878694415 ], [ 488795.142481397546362, 4419982.095943010412157 ], [ 488788.46004945813911, 4419975.968061693944037 ], [ 488778.322374862851575, 4419967.692079070955515 ], [ 488775.867085328092799, 4419965.686787852086127 ], [ 488768.964209306519479, 4419960.746832077391446 ], [ 488758.248003302956931, 4419954.203158943913877 ], [ 488752.397761029831599, 4419950.382657366804779 ], [ 488741.441847488575149, 4419943.550789506174624 ], [ 488683.685173806094099, 4419907.220715001225471 ], [ 488678.405843280546833, 4419902.378322991542518 ], [ 488674.7329274280346, 4419897.533549363724887 ], [ 488672.265680807875469, 4419893.264130538329482 ], [ 488670.592570698412601, 4419888.638367676176131 ], [ 488669.190268316713627, 4419864.988662410527468 ], [ 488564.738944929267745, 4419859.905847172252834 ], [ 488421.473225778026972, 4419858.157460602931678 ], [ 488321.644734948291443, 4419858.875690935179591 ], [ 488186.155532550532371, 4419874.189956977032125 ], [ 488039.812004401464947, 4419893.086396583355963 ], [ 487909.774371012521442, 4419891.493376368656754 ], [ 487759.334030764061026, 4419891.400344209745526 ], [ 487649.113520894723479, 4419896.184069026261568 ], [ 487591.208503638394177, 4419903.425754117779434 ], [ 487538.562067460501567, 4419907.5293905492872 ], [ 487434.610250857367646, 4419915.347082668915391 ], [ 487398.326667591696605, 4419919.091782495379448 ], [ 487363.630079627386294, 4419926.563264030963182 ], [ 487336.224982396466658, 4419935.676534243859351 ], [ 487285.985010556993075, 4419953.052233808673918 ], [ 487238.202685592928901, 4419978.570764176547527 ], [ 487179.196384287555702, 4420026.472789538092911 ], [ 487137.959662396227941, 4420072.014517567120492 ], [ 487052.512025791627821, 4420171.8829595297575 ], [ 486963.138023033505306, 4420282.813629959709942 ], [ 486881.035216793534346, 4420402.179155482910573 ], [ 486817.170734295272268, 4420473.611039505340159 ], [ 486759.504280915600248, 4420516.874703853391111 ], [ 486545.482371013611555, 4420662.190338935703039 ], [ 486453.973186168528628, 4420727.691811140626669 ], [ 486322.535429071984254, 4420766.672836716286838 ], [ 486271.028904610022437, 4420830.795207151211798 ], [ 486136.620729464048054, 4420634.853433929383755 ], [ 486128.683772916730959, 4420620.994188098236918 ], [ 486121.025366553105414, 4420605.280920329503715 ], [ 486107.433522058650851, 4420559.322750910185277 ], [ 486075.539972694357857, 4420564.841597625985742 ], [ 486056.44352526566945, 4420564.610114847309887 ], [ 486038.887231226428412, 4420560.924089095555246 ], [ 485950.833166671800427, 4420524.525880090892315 ], [ 485925.892946037754882, 4420515.315348150208592 ], [ 485407.077127169119194, 4420315.155396073125303 ], [ 485295.154222887242213, 4420275.147800826467574 ], [ 485035.488066219375469, 4420313.611257303506136 ], [ 484904.847632223914843, 4420306.499006888829172 ], [ 484857.932722568104509, 4420294.73833257611841 ], [ 484564.268067893455736, 4420166.923307083547115 ], [ 484428.87913894013036, 4419923.820855198428035 ], [ 484314.337105002021417, 4419716.627425279468298 ], [ 484278.391730181174353, 4419643.75919506046921 ], [ 484257.359759931568988, 4419597.042742502875626 ], [ 484226.230366864998359, 4419518.859537523239851 ], [ 484197.667752879904583, 4419442.513572008349001 ], [ 484176.306909759354312, 4419373.700054321438074 ], [ 484158.678009832976386, 4419308.008751232177019 ], [ 484142.860488016856834, 4419242.324827966280282 ], [ 484120.60161562502617, 4419112.069666732102633 ], [ 484112.471036460250616, 4419056.991504026576877 ], [ 484103.037336677254643, 4418954.856612994335592 ], [ 484099.953889399941545, 4418836.703861996531487 ], [ 484102.051965321006719, 4418736.22092230245471 ], [ 484112.653768833959475, 4418479.81374700460583 ], [ 484122.730650961515494, 4418319.912858680821955 ], [ 484131.398628068738617, 4418213.866887664422393 ], [ 484141.297625376086216, 4418120.171477474272251 ], [ 484144.4489124979591, 4418086.057970860973001 ], [ 483528.726608342316467, 4417897.426205212250352 ], [ 483510.034229303302709, 4417917.255930389277637 ], [ 483488.447177824564278, 4417938.323943543247879 ], [ 483471.15090665302705, 4417951.524693727493286 ], [ 483443.348031841334887, 4417971.507507486268878 ], [ 483411.80956392531516, 4417991.165574398823082 ], [ 483387.69925442407839, 4418007.211552560329437 ], [ 483364.960978519695345, 4418025.285719156265259 ], [ 483346.61457821726799, 4418042.739929900504649 ], [ 483331.946532579837367, 4418057.699993944726884 ], [ 483300.42216657276731, 4418099.134575336240232 ], [ 483276.032952692476101, 4418139.754530720412731 ], [ 483144.479921131569427, 4418398.859726460650563 ], [ 483087.97678832418751, 4418382.525027165189385 ], [ 483062.481402738660108, 4418466.778027230873704 ], [ 482938.515727382618934, 4418849.312479578889906 ], [ 482935.08864158851793, 4418860.718749667517841 ], [ 482844.374679450702388, 4419173.268497686833143 ], [ 482629.728082127752714, 4419118.492532550357282 ], [ 482485.793432887236122, 4419074.292623997665942 ], [ 482429.382261731894687, 4419033.267445824109018 ], [ 482372.519440654665232, 4418985.662054846063256 ], [ 482084.700484462606255, 4418755.418935629539192 ], [ 481997.567248531035148, 4418702.448984026908875 ], [ 481970.033574287663214, 4418688.906691019423306 ], [ 481943.392780964204576, 4418677.127115677110851 ], [ 481924.694261619704776, 4418673.786208099685609 ], [ 481901.487838784756605, 4418672.353955494239926 ], [ 481485.881770450389013, 4418745.283260936848819 ], [ 481414.947148782201111, 4418751.682208323851228 ], [ 481349.690886555821635, 4418749.066689407452941 ], [ 481327.803191480925307, 4418745.168992827646434 ], [ 481299.001923101197463, 4418734.418051617220044 ], [ 481212.144373772083782, 4418698.570936866104603 ], [ 480929.420587687054649, 4418555.773984032683074 ], [ 480812.224539334769361, 4418511.749669806100428 ], [ 480702.164360199763905, 4418512.02719905693084 ], [ 480423.6090572088724, 4418554.724031371064484 ], [ 480280.780341693083756, 4418557.422555418685079 ], [ 479093.073575257963967, 4418383.311492310836911 ], [ 478943.118080129439477, 4418353.401415523141623 ], [ 478664.102660582400858, 4418242.509703715331852 ], [ 478378.161904816748574, 4418142.72453847527504 ], [ 478157.857075667998288, 4418082.707103054970503 ], [ 477661.30662177677732, 4418053.821920220740139 ], [ 477549.216506589378696, 4418046.270548074506223 ], [ 477411.116463090816978, 4418015.212442289106548 ], [ 477279.337261914333794, 4417963.105458362028003 ], [ 477154.519986635830719, 4417907.41712970007211 ], [ 477241.697699405136518, 4417751.571336582303047 ], [ 477290.081348168198019, 4417644.366596708074212 ], [ 477301.735254097089637, 4417614.009559935890138 ], [ 477307.9897587451851, 4417578.751750723458827 ], [ 477301.139363356691319, 4417525.719069131650031 ], [ 477270.898675026546698, 4417445.541348466649652 ], [ 477263.355013701308053, 4417423.898638107813895 ], [ 477069.928176734072622, 4417414.92098586820066 ], [ 475615.40898009261582, 4417340.181847646832466 ], [ 475319.471341925964225, 4417330.899607191793621 ], [ 474303.883671923773363, 4417281.275019401684403 ], [ 474176.748264533060137, 4417267.808066978119314 ], [ 474095.580603221140336, 4417251.10159183293581 ], [ 474009.216398495598696, 4417224.63545180298388 ], [ 473936.782396886206698, 4417192.462227496318519 ], [ 473873.122998519684188, 4417159.238545577041805 ], [ 473803.741520722105633, 4417115.213502212427557 ], [ 473695.972966776811518, 4417025.016233282163739 ], [ 473652.781920753419399, 4416991.168935968540609 ], [ 472906.437499228981324, 4416403.414075808599591 ], [ 472654.668008323351387, 4416206.261013751849532 ], [ 472582.936464393569622, 4416147.837816283106804 ], [ 472274.836320549016818, 4415910.932154824025929 ], [ 472036.170191375305876, 4415726.471243223175406 ], [ 471804.886141431634314, 4415536.840554129332304 ], [ 471570.678286597074475, 4415325.118507170118392 ], [ 471534.206204834918026, 4415293.710990677587688 ], [ 471450.530009704933036, 4415221.580126140266657 ], [ 471430.556675159314182, 4415203.285963787697256 ], [ 471408.199326330854092, 4415183.136144869029522 ], [ 471384.527503407967743, 4415163.623957187868655 ], [ 471362.65255561954109, 4415144.493571035563946 ], [ 471304.033961928042118, 4415090.483856104314327 ], [ 471062.670051903638523, 4414874.975010133348405 ], [ 469907.386690081562847, 4413841.404226573184133 ], [ 469691.055547346186358, 4413646.051126039586961 ], [ 469562.360640927508939, 4413529.024249690584838 ], [ 469518.1788773057051, 4413490.076381982304156 ], [ 469138.238141526526306, 4413155.123988931067288 ], [ 469110.704267361667007, 4413131.061601847410202 ], [ 468962.373838612635154, 4413001.893030294217169 ], [ 468892.10199538472807, 4412950.834737402386963 ], [ 469083.337680547032505, 4412810.034162157215178 ], [ 469083.874937060812954, 4412809.643525088205934 ], [ 469088.735816857079044, 4412806.10549183562398 ], [ 469083.296612183446996, 4412799.878758314996958 ], [ 469079.365749987133313, 4412794.400658877566457 ], [ 469075.649152127443813, 4412789.032684590667486 ], [ 469017.276397767243907, 4412702.830140641890466 ], [ 468973.917143496277276, 4412638.687371778301895 ], [ 468947.41645356657682, 4412597.928507216274738 ], [ 468934.034347141918261, 4412573.565110261552036 ], [ 468921.452618660172448, 4412542.017442448064685 ], [ 468909.656529485189822, 4412503.873806545510888 ], [ 468899.01719503669301, 4412464.160528370179236 ], [ 468897.462865514331497, 4412450.026750302873552 ], [ 468896.598543460189831, 4412435.202029121108353 ], [ 468896.628156337304972, 4412419.352565734647214 ], [ 468897.012420123501215, 4412307.750773506239057 ], [ 468891.951483769051265, 4412308.426201304420829 ], [ 468828.987792783009354, 4412318.616206480190158 ], [ 468825.170193772471976, 4412299.064271063543856 ], [ 468812.376364859228488, 4412224.120649305172265 ], [ 468813.798061777721159, 4412182.615776010788977 ], [ 468813.909339833713602, 4412172.148987341672182 ], [ 468814.243961075437255, 4412161.914366474375129 ], [ 468817.197191758139525, 4412147.77332622371614 ], [ 468821.258804519777186, 4412053.02701223269105 ], [ 468821.121811768854968, 4412048.798861625604331 ], [ 468819.847542293719016, 4412044.664139961823821 ], [ 468818.296430932474323, 4412041.862424271181226 ], [ 468815.623519030399621, 4412038.754512255080044 ], [ 468811.882616649207193, 4412035.950629183091223 ], [ 468793.956379203882534, 4412028.198985395953059 ], [ 468710.922962723183446, 4411992.333424612879753 ], [ 468715.203154173621442, 4411970.129062769934535 ], [ 468721.166818361729383, 4411939.149629069492221 ], [ 468722.326087732973974, 4411933.972765765152872 ], [ 468502.883664434368256, 4411875.926786776632071 ], [ 468490.976643758534919, 4411871.81372142676264 ], [ 468478.262114847369958, 4411866.871579742059112 ], [ 468461.728911626734771, 4411856.917370380833745 ], [ 468428.918291232956108, 4411834.766008902341127 ], [ 468416.593758809613064, 4411824.861116650514305 ], [ 468390.839573358185589, 4411796.398757547140121 ], [ 468352.626158871513326, 4411754.513876299373806 ], [ 468336.706673431966919, 4411735.866897170431912 ], [ 468299.406613343744539, 4411693.656628084369004 ], [ 468274.086200698337052, 4411664.804397023282945 ], [ 468258.658562274649739, 4411645.21212594024837 ], [ 468212.834431528055575, 4411589.907570567913353 ], [ 468125.721972393046599, 4411494.608057294040918 ], [ 468051.304203592648264, 4411424.340172710828483 ] ] ] } }
]
}
